0 COSMOS 1275 DEB
1 15766U 81053KE  13282.40483721  .00002192  00000-0  10668-2 0  6698
2 15766 082.9455 077.0679 0008507 254.7920 136.1929 14.17803323453864
0 COSMOS 1275 DEB
1 15766U 81053KE  13285.88690991  .00002157  00000-0  10492-2 0  6700
2 15766 082.9460 074.2983 0008788 243.3481 270.0730 14.17816242454351
0 COSMOS 1275 DEB
1 15766U 81053KE  13288.13967712  .00003685  00000-0  17974-2 0  6719
2 15766 082.9475 072.5073 0008862 236.2292 248.9189 14.17827525454675
0 COSMOS 1275 DEB
1 15766U 81053KE  13289.39129670  .00003145  00000-0  15330-2 0  6727
2 15766 082.9459 071.5115 0009142 232.6211 157.2851 14.17834997454855
0 COSMOS 1275 DEB
1 15766U 81053KE  13290.66696907  .00003284  00000-0  16006-2 0  6737
2 15766 082.9466 070.4972 0009245 228.4316 188.9613 14.17841964455035
0 COSMOS 1275 DEB
1 15766U 81053KE  13292.09097381  .00003093  00000-0  15070-2 0  6746
2 15766 082.9463 069.3641 0009384 223.8100 257.7835 14.17847982455235
0 COSMOS 1275 DEB
1 15766U 81053KE  13293.86175501  .00003405  00000-0  16592-2 0  6751
2 15766 082.9459 067.9554 0009560 218.6499 296.1856 14.17857718455481
0 COSMOS 1275 DEB
1 15766U 81053KE  13295.12617134  .00003699  00000-0  18030-2 0  6760
2 15766 082.9479 066.9520 0009640 216.0614 268.9571 14.17864627455663
